[{"OBJECT_NAME":"STARLINK-31357","OBJECT_ID":"2024-071U","EPOCH":"2026-03-08T11:03:35.968608","MEAN_MOTION":15.27591756,"ECCENTRICITY":0.00010138,"INCLINATION":43.0025,"RA_OF_ASC_NODE":347.0335,"ARG_OF_PERICENTER":264.2594,"MEAN_ANOMALY":95.8142,"EPHEMERIS_TYPE":0,"CLASSIFICATION_TYPE":"U","NORAD_CAT_ID":59502,"ELEMENT_SET_NO":999,"REV_AT_EPOCH":10801,"BSTAR":7.1267032e-5,"MEAN_MOTION_DOT":1.7e-5,"MEAN_MOTION_DDOT":0},{"OBJECT_NAME":"CZ-4C R\/B","OBJECT_ID":"2022-039B","EPOCH":"2026-03-09T15:51:32.485824","MEAN_MOTION":15.03008334,"ECCENTRICITY":0.0113659,"INCLINATION":98.2525,"RA_OF_ASC_NODE":105.9247,"ARG_OF_PERICENTER":45.8852,"MEAN_ANOMALY":315.1654,"EPHEMERIS_TYPE":0,"CLASSIFICATION_TYPE":"U","NORAD_CAT_ID":52258,"ELEMENT_SET_NO":999,"REV_AT_EPOCH":21291,"BSTAR":0.00022979194,"MEAN_MOTION_DOT":3.483e-5,"MEAN_MOTION_DDOT":0}]
